SatCatId,ObjectName,LaunchYear,OrbitalPeriod,LaunchMass,StatusCode,Inclination,Status,UcsData,OrbitClassEstimated,LaunchSiteCountry,Owner,UseType,Purpose,LaunchVehicleClass,TLE1,TLE2,MeanMotion,Eccentricity,OrbitClass
52486,STARLINK-3918,2022,95.44,260.0,+,53.22,Active,1,LEO,USA,USA,Commercial,Communications,Falcon,1 52486U 22049AM  25170.37911791 -.00000174  00000+0  71630-5 0  9999,2 52486  53.2162 161.1649 0001234  77.3150 282.7980 15.08843704172508,15.08843704,0.0001234,LEO
52487,STARLINK-3902,2022,95.44,260.0,+,53.22,Active,1,LEO,USA,USA,Commercial,Communications,Falcon,1 52487U 22049AN  25170.35061477 -.00000075  00000+0  13386-4 0  9998,2 52487  53.2165 151.4001 0001238  82.9075 277.2058 15.08840843173875,15.08840843,0.0001238,LEO
52488,STARLINK-3892,2022,95.44,260.0,+,53.22,Active,1,LEO,USA,USA,Commercial,Communications,Falcon,1 52488U 22049AP  25170.37542886 -.00003284  00000+0 -18831-3 0  9994,2 52488  53.2157 161.1812 0000917  91.0205 269.0892 15.08844520172504,15.0884452,9.17e-05,LEO
52489,STARLINK-3923,2022,95.44,260.0,+,53.22,Active,1,LEO,USA,USA,Commercial,Communications,Falcon,1 52489U 22049AQ  25170.38279940 -.00002229  00000+0 -12195-3 0  9999,2 52489  53.2174 161.1479 0001138  78.1528 281.9591 15.08850300172505,15.088503,0.0001138,LEO
52490,STARLINK-3914,2022,95.44,260.0,+,53.22,Active,1,LEO,USA,USA,Commercial,Communications,Falcon,1 52490U 22049AR  25170.65604514  .00000529  00000+0  51322-4 0  9995,2 52490  53.2162 149.9247 0001484  92.9939 267.1223 15.08832038172848,15.08832038,0.0001484,LEO
52491,STARLINK-3908,2022,95.44,260.0,+,53.22,Active,1,LEO,USA,USA,Commercial,Communications,Falcon,1 52491U 22049AS  25170.33221558  .00000655  00000+0  59252-4 0  9994,2 52491  53.2162 151.3773 0001380  85.7338 274.3812 15.08836266172636,15.08836266,0.000138,LEO
52492,STARLINK-3916,2022,95.44,260.0,+,53.22,Active,1,LEO,USA,USA,Commercial,Communications,Falcon,1 52492U 22049AT  25170.38372985  .00000639  00000+0  58217-4 0  9993,2 52492  53.2161 151.1452 0000941  82.9242 277.1857 15.08845964172649,15.08845964,9.41e-05,LEO
52493,STARLINK-3883,2022,95.44,260.0,+,53.22,Active,1,LEO,USA,USA,Commercial,Communications,Falcon,1 52493U 22049AU  25170.32852458 -.00000272  00000+0  99905-6 0  9991,2 52493  53.2164 151.3945 0001352  89.6982 270.4165 15.08836051172638,15.08836051,0.0001352,LEO
52494,STARLINK-3857,2022,95.44,260.0,+,53.22,Active,1,LEO,USA,USA,Commercial,Communications,Falcon,1 52494U 22049AV  25170.24020426  .00000010  00000+0  18707-4 0  9993,2 52494  53.2164 151.7884 0001329  83.3854 276.7289 15.08835554172787,15.08835554,0.0001329,LEO
52496,STARLINK-3871,2022,95.44,260.0,+,53.22,Active,1,LEO,USA,USA,Commercial,Communications,Falcon,1 52496U 22049AX  25170.34186150  .00000024  00000+0  19601-4 0  9992,2 52496  53.2160 146.3322 0001331  83.1291 276.9853 15.08843454172707,15.08843454,0.0001331,LEO
52497,STARLINK-3884,2022,95.44,260.0,+,53.22,Active,1,LEO,USA,USA,Commercial,Communications,Falcon,1 52497U 22049AY  25170.31379726  .00000206  00000+0  31040-4 0  9996,2 52497  53.2164 151.4594 0001349  89.5018 270.6129 15.08832286172636,15.08832286,0.0001349,LEO
52498,STARLINK-3925,2022,95.44,260.0,+,53.22,Active,1,LEO,USA,USA,Commercial,Communications,Falcon,1 52498U 22049AZ  25170.35520304 -.00000076  00000+0  13335-4 0  9994,2 52498  53.2172 141.2738 0001407  89.2903 270.8251 15.08838354172773,15.08838354,0.0001407,LEO
52499,STARLINK-3894,2022,95.44,260.0,+,53.22,Active,1,LEO,USA,USA,Commercial,Communications,Falcon,1 52499U 22049BA  25170.24390473  .00002495  00000+0  17490-3 0  9996,2 52499  53.2163 151.7733 0001380  93.3591 266.7558 15.08821746172629,15.08821746,0.000138,LEO
52500,STARLINK-3866,2022,95.44,260.0,+,53.22,Active,1,LEO,USA,USA,Commercial,Communications,Falcon,1 52500U 22049BB  25170.21904123  .00000628  00000+0  57530-4 0  9995,2 52500  53.2167 141.8832 0001608  72.6918 287.4250 15.08832716172912,15.08832716,0.0001608,LEO
52501,STARLINK-3907,2022,95.44,260.0,+,53.22,Active,1,LEO,USA,USA,Commercial,Communications,Falcon,1 52501U 22049BC  25170.35425490  .00000135  00000+0  26579-4 0  9998,2 52501  53.2161 151.0738 0001239  87.5788 272.5346 15.08843443172645,15.08843443,0.0001239,LEO
52502,STARLINK-3912,2022,95.44,260.0,+,53.22,Active,1,LEO,USA,USA,Commercial,Communications,Falcon,1 52502U 22049BD  25170.34784333  .00001194  00000+0  93119-4 0  9992,2 52502  53.2158 141.3310 0001214  85.1052 275.0079 15.08838157172772,15.08838157,0.0001214,LEO
52503,STARLINK-3861,2022,95.44,260.0,+,53.22,Active,1,LEO,USA,USA,Commercial,Communications,Falcon,1 52503U 22049BE  25170.33678596 -.00000248  00000+0  24968-5 0  9992,2 52503  53.2165 141.2394 0001385  85.6250 274.4901 15.08839392172775,15.08839392,0.0001385,LEO
52534,STARLINK-3952,2022,95.44,260.0,+,53.22,Active,1,LEO,USA,USA,Commercial,Communications,Falcon,1 52534U 22051B   25170.14452240 -.00000002  00000+0  17946-4 0  9999,2 52534  53.2172 232.2219 0001170  85.5700 274.5426 15.08837672172395,15.08837672,0.000117,LEO
52535,STARLINK-3958,2022,95.44,260.0,+,53.22,Active,1,LEO,USA,USA,Commercial,Communications,Falcon,1 52535U 22051C   25170.47204600 -.00000354  00000+0 -41781-5 0  9997,2 52535  53.2170 230.7513 0001068  93.3925 266.7189 15.08834036171700,15.08834036,0.0001068,LEO
52536,STARLINK-3964,2022,95.44,260.0,+,53.22,Active,1,LEO,USA,USA,Commercial,Communications,Falcon,1 52536U 22051D   25170.33588559 -.00000386  00000+0 -62070-5 0  9990,2 52536  53.2167 231.3618 0000841  82.1008 278.0080 15.08833028171757,15.08833028,8.41e-05,LEO
52537,STARLINK-3897,2022,95.44,260.0,+,53.22,Active,1,LEO,USA,USA,Commercial,Communications,Falcon,1 52537U 22051E   25170.44625724 -.00000340  00000+0 -32790-5 0  9995,2 52537  53.2171 230.6733 0001313  96.8100 263.3041 15.08843255171705,15.08843255,0.0001313,LEO
52538,STARLINK-3933,2022,95.44,260.0,+,53.22,Active,1,LEO,USA,USA,Commercial,Communications,Falcon,1 52538U 22051F   25170.45732397  .00000301  00000+0  37030-4 0  9998,2 52538  53.2162 230.8151 0001372  89.7654 270.3495 15.08829910171705,15.0882991,0.0001372,LEO
52539,STARLINK-3757,2022,95.44,260.0,+,53.22,Active,1,LEO,USA,USA,Commercial,Communications,Falcon,1 52539U 22051G   25170.32851483  .00001190  00000+0  92802-4 0  9998,2 52539  53.2151 231.3932 0001365  84.7115 275.4033 15.08854183171755,15.08854183,0.0001365,LEO
52540,STARLINK-3940,2022,95.44,260.0,+,53.22,Active,1,LEO,USA,USA,Commercial,Communications,Falcon,1 52540U 22051H   25170.44996718 -.00000869  00000+0 -36525-4 0  9998,2 52540  53.2164 230.8860 0001131  85.7420 274.3702 15.08837460171701,15.0883746,0.0001131,LEO
52541,STARLINK-3845,2022,95.44,260.0,+,53.22,Active,1,LEO,USA,USA,Commercial,Communications,Falcon,1 52541U 22051J   25170.21583701 -.00002209  00000+0 -12079-3 0  9995,2 52541  53.2170 236.9022 0001037  93.4209 266.6902 15.08836743171598,15.08836743,0.0001037,LEO
52542,STARLINK-3937,2022,95.44,260.0,+,53.22,Active,1,LEO,USA,USA,Commercial,Communications,Falcon,1 52542U 22051K   25170.44260325  .00000584  00000+0  54794-4 0  9998,2 52542  53.2160 230.8840 0001260  87.9893 272.1243 15.08841344171700,15.08841344,0.000126,LEO
52543,STARLINK-3926,2022,95.44,260.0,+,53.22,Active,1,LEO,USA,USA,Commercial,Communications,Falcon,1 52543U 22051L   25170.45364673 -.00000571  00000+0 -17763-4 0  9994,2 52543  53.2170 230.8312 0001317  88.8076 271.3067 15.08844835171705,15.08844835,0.0001317,LEO
52544,STARLINK-3944,2022,95.44,260.0,+,53.22,Active,1,LEO,USA,USA,Commercial,Communications,Falcon,1 52544U 22051M   25170.47342318  .00000258  00000+0  34277-4 0  9998,2 52544  53.2162 235.7534 0001277  92.4609 267.6529 15.08830665171634,15.08830665,0.0001277,LEO
52546,STARLINK-3948,2022,95.44,260.0,+,53.22,Active,1,LEO,USA,USA,Commercial,Communications,Falcon,1 52546U 22051P   25170.34785466 -.00000416  00000+0 -80515-5 0  9996,2 52546  53.2165 231.0773 0000959 106.5438 253.5659 15.08834647171762,15.08834647,9.59e-05,LEO
52548,STARLINK-3931,2022,95.44,260.0,+,53.22,Active,1,LEO,USA,USA,Commercial,Communications,Falcon,1 52548U 22051R   25170.35428110  .00000172  00000+0  28885-4 0  9997,2 52548  53.2166 231.2825 0001110  95.9952 264.1167 15.08839882171765,15.08839882,0.000111,LEO
52549,STARLINK-3935,2022,95.44,260.0,+,53.22,Active,1,LEO,USA,USA,Commercial,Communications,Falcon,1 52549U 22051S   25170.43892329 -.00001000  00000+0 -44735-4 0  9999,2 52549  53.2159 230.9009 0001179  88.7429 271.3699 15.08837497171706,15.08837497,0.0001179,LEO
52550,STARLINK-3965,2022,95.44,260.0,+,53.22,Active,1,LEO,USA,USA,Commercial,Communications,Falcon,1 52550U 22051T   25170.42788344  .00000623  00000+0  57200-4 0  9990,2 52550  53.2168 230.9516 0001198  76.0818 284.0308 15.08837360171701,15.0883736,0.0001198,LEO
52551,STARLINK-3969,2022,95.44,260.0,+,53.22,Active,1,LEO,USA,USA,Commercial,Communications,Falcon,1 52551U 22051U   25170.43524243 -.00000011  00000+0  17384-4 0  9999,2 52551  53.2166 230.9179 0001267  88.6483 271.4655 15.08842041171706,15.08842041,0.0001267,LEO
52552,STARLINK-3966,2022,95.44,260.0,+,53.22,Active,1,LEO,USA,USA,Commercial,Communications,Falcon,1 52552U 22051V   25170.43161049 -.00003061  00000+0 -17448-3 0  9990,2 52552  53.2163 231.0897 0001177  82.1161 277.9965 15.08812213171708,15.08812213,0.0001177,LEO
52553,STARLINK-3858,2022,95.44,260.0,+,53.22,Active,1,LEO,USA,USA,Commercial,Communications,Falcon,1 52553U 22051W   25170.33216040  .00000174  00000+0  29053-4 0  9998,2 52553  53.2166 231.0376 0001256  88.8303 271.2833 15.08835666171767,15.08835666,0.0001256,LEO
52554,STARLINK-3770,2022,95.44,260.0,+,53.22,Active,1,LEO,USA,USA,Commercial,Communications,Falcon,1 52554U 22051X   25170.46974285 -.00000128  00000+0  10013-4 0  9991,2 52554  53.2161 235.7584 0001088  83.2242 276.8874 15.08839770171631,15.0883977,0.0001088,LEO
